COSMOS 2251 DEB         
1 34069U 93036KG  21274.87687400  .00004162  00000-0  66882-3 0  9995
2 34069  74.0154 205.0588 0036022   6.0435 354.1163 14.71501408673071
COSMOS 2251 DEB         
1 34070U 93036KH  21274.75254028  .00001052  00000-0  31168-3 0  9994
2 34070  74.0125 143.3940 0038373 261.4794 171.1948 14.44224240663144
IRIDIUM 33 DEB          
1 34071U 97051CE  21275.48995306  .00000520  00000-0  15839-3 0  9994
2 34071  86.3483 316.9779 0009586 131.7250 228.4770 14.40139328662850
IRIDIUM 33 DEB          
1 34076U 97051CK  21274.86470017  .00006534  00000-0  63877-3 0  9993
2 34076  86.3309 213.8434 0032038 243.6917 174.7217 14.91815248675835
IRIDIUM 33 DEB          
1 34077U 97051CL  21274.72694212  .00000444  00000-0  13185-3 0  9995
2 34077  86.4003 348.7728 0020137 104.7264  10.5060 14.40977107661285
IRIDIUM 33 DEB          
1 34079U 97051CN  21275.40403257  .00000891  00000-0  22445-3 0  9995
2 34079  86.3892 319.5020 0013085 135.7355 236.0589 14.50023441666114
IRIDIUM 33 DEB          
1 34082U 97051CR  21274.76959115  .00007049  00000-0  14885-2 0  9996
2 34082  86.3629   6.1694 0122420 351.9841   7.9405 14.54608861658053
IRIDIUM 33 DEB          
1 34086U 97051CV  21274.67040744  .00002646  00000-0  74218-3 0  9994
2 34086  86.3857 343.6943 0021881 127.1158  30.7624 14.45569690662013
IRIDIUM 33 DEB          
1 34088U 97051CX  21274.68288593  .00001420  00000-0  38862-3 0  9997
2 34088  86.4052 338.6745 0013504  60.7282  54.6619 14.46525447663743
IRIDIUM 33 DEB          
1 34090U 97051CZ  21275.00301749  .00014168  00000-0  12207-2 0  9993
2 34090  86.4162 259.7829 0004289 276.9050  83.1693 14.97233234676860
IRIDIUM 33 DEB          
1 34091U 97051DA  21274.78139084  .00001529  00000-0  53981-3 0  9991
2 34091  86.3723   7.5321 0070331  31.7067 328.8334 14.32721405656977
IRIDIUM 33 DEB          
1 34093U 97051DC  21274.67859367  .00060781  00000-0  23017-2 0  9995
2 34093  86.2894 154.7127 0004019 317.5502  42.5433 15.26662316681499
IRIDIUM 33 DEB          
1 34095U 97051DE  21274.87720176  .00006590  00000-0  12573-2 0  9997
2 34095  86.3834 316.8998 0057582 282.8409  76.6373 14.62790449665420
IRIDIUM 33 DEB          
1 34097U 97051DG  21275.35885134  .00000532  00000-0  22744-3 0  9991
2 34097  86.2034 307.2215 0098714 239.9960 119.1405 14.20675770653447
IRIDIUM 33 DEB          
1 34098U 97051DH  21275.38093505  .00007092  00000-0  84519-3 0  9994
2 34098  86.1312 126.2454 0017300   8.3937 166.8318 14.84077417673554
IRIDIUM 33 DEB          
1 34099U 97051DJ  21274.57903118  .00004918  00000-0  92058-3 0  9996
2 34099  86.3624 295.0641 0015097 160.8762 321.3118 14.64609432667462
IRIDIUM 33 DEB          
1 34101U 97051DL  21274.74377749  .00004249  00000-0  12179-2 0  9996
2 34101  86.3801  19.6470 0102405  58.9587 302.1618 14.41718802655933
IRIDIUM 33 DEB          
1 34102U 97051DM  21274.88467853  .00003722  00000-0  13882-2 0  9995
2 34102  86.3751  42.4225 0115111 223.5874 260.8588 14.28122937652775
IRIDIUM 33 DEB          
1 34103U 97051DN  21274.83665602  .00004349  00000-0  91281-3 0  9999
2 34103  86.3425 295.4837 0033663 154.9804 327.6404 14.59095946666030
IRIDIUM 33 DEB          
1 34104U 97051DP  21275.02412549  .00008567  00000-0  12849-2 0  9990
2 34104  86.3393 254.1179 0031499 221.2277 208.6372 14.74154129671598
IRIDIUM 33 DEB          
1 34105U 97051DQ  21275.38919172  .00057604  00000-0  27611-2 0  9993
2 34105  86.3478 224.5547 0012431  49.1024 311.1293 15.18606501676384
IRIDIUM 33 DEB          
1 34106U 97051DR  21274.84387111  .00001925  00000-0  45837-3 0  9992
2 34106  86.3593 300.7249 0019301 108.4227  65.7845 14.53215263666222
IRIDIUM 33 DEB          
1 34107U 97051DS  21274.60859007  .00003210  00000-0  72259-3 0  9992
2 34107  86.3840 309.0804 0004112 158.3729 317.8252 14.56171725666840
TELSTAR 11N             
1 34111U 09009A   21275.42621192 -.00000253  00000-0  00000+0 0  9992
2 34111   0.0014 134.4210 0002285  44.4258 308.3987  1.00271253 46184
SL-23 R/B               
1 34112U 09009B   21273.38540247 -.00000074  00000-0  00000-0 0  9999
2 34112  35.1705 348.3097 6900111 256.7211 156.2790  2.20448621101416
COSMOS 2251 DEB         
1 34114U 93036KK  21274.65774062  .00000971  00000-0  36883-3 0  9995
2 34114  74.0696 351.2160 0073950  17.7683 102.2021 14.30852544657362
COSMOS 2251 DEB         
1 34115U 93036KL  21275.20020151  .00000747  00000-0  17240-3 0  9998
2 34115  74.0158 311.9722 0042490 159.5447 200.7431 14.56564214669938
COSMOS 2251 DEB         
1 34116U 93036KM  21274.78378220  .00000600  00000-0  19333-3 0  9997
2 34116  74.0466 160.1901 0016137 252.5642 170.6726 14.41337875663339
COSMOS 2251 DEB         
1 34117U 93036KN  21275.40523203  .00000527  00000-0  20092-3 0  9993
2 34117  74.0397 272.5818 0064851   3.1425 357.0119 14.32117404661679
COSMOS 2251 DEB         
1 34118U 93036KP  21274.92395541  .00001207  00000-0  26359-3 0  9990
2 34118  73.9693 341.3577 0120577 173.0997   1.7688 14.54553727666982
COSMOS 2251 DEB         
1 34119U 93036KQ  21275.30289646  .00002365  00000-0  59857-3 0  9997
2 34119  74.0448 133.3606 0032393 167.6916 315.4575 14.51184736663426
COSMOS 2251 DEB         
1 34120U 93036KR  21274.59269639  .00000109  00000-0  82787-4 0  9992
2 34120  73.9956 345.9813 0185710 148.0486 323.4940 13.96458049645657
COSMOS 2251 DEB         
1 34121U 93036KS  21274.86443007  .00000990  00000-0  70650-3 0  9999
2 34121  73.9989 182.0654 0260183 355.2542  71.8933 13.83642870638729
COSMOS 2251 DEB         
1 34122U 93036KT  21275.36140797  .00000960  00000-0  26163-3 0  9993
2 34122  74.0426 126.0899 0114492  50.4684 123.4576 14.44979807664478
COSMOS 2251 DEB         
1 34123U 93036KU  21274.89670685  .00003299  00000-0  77072-3 0  9998
2 34123  74.0276  67.1106 0016462 125.9619 358.0687 14.55006019666202
COSMOS 2251 DEB         
1 34124U 93036KV  21274.74548878  .00004281  00000-0  89580-3 0  9990
2 34124  74.0279  27.5867 0017992 100.7141 259.6051 14.59998656667359
COSMOS 2251 DEB         
1 34126U 93036KX  21274.77942459  .00002045  00000-0  32880-3 0  9995
2 34126  74.0033 157.6937 0058195   5.1465  64.9512 14.71170127674366
COSMOS 2251 DEB         
1 34127U 93036KY  21274.66046388  .00001026  00000-0  49536-3 0  9994
2 34127  74.1892 247.1039 0137969 150.7750  23.9642 14.14905202649919
COSMOS 2251 DEB         
1 34128U 93036KZ  21275.05158010  .00001767  00000-0  42034-3 0  9993
2 34128  74.0186  21.1734 0068615 160.8322  13.5413 14.53196394667171
COSMOS 2251 DEB         
1 34129U 93036LA  21275.03768159  .00001125  00000-0  27604-3 0  9997
2 34129  74.0487  27.3320 0048078 143.0883 217.3605 14.52873751667446
COSMOS 2251 DEB         
1 34130U 93036LB  21275.07223468  .00002633  00000-0  49180-3 0  9990
2 34130  74.0289 286.5561 0020626  68.2758 292.0603 14.65332177670901
COSMOS 2251 DEB         
1 34131U 93036LC  21274.72043558  .00004751  00000-0  89193-3 0  9993
2 34131  74.1224  32.4940 0010989 348.9528 130.3049 14.64943844668672
COSMOS 2251 DEB         
1 34136U 93036LH  21275.40441605  .00000352  00000-0  63262-4 0  9992
2 34136  74.0232 146.1262 0109261 297.5770 237.4846 14.67174372674918
COSMOS 2251 DEB         
1 34139U 93036LL  21275.29850056  .00001034  00000-0  34518-3 0  9995
2 34139  74.0370 230.6347 0062126 318.8843 156.1406 14.37690026660238
COSMOS 2251 DEB         
1 34141U 93036LN  21274.57831583  .00000924  00000-0  36129-3 0  9999
2 34141  74.0172 331.0635 0070056  58.4518  57.1160 14.29563181656744
COSMOS 2251 DEB         
1 34142U 93036LP  21274.92468721  .00002071  00000-0  34606-3 0  9992
2 34142  73.9938 184.4341 0045592  22.8937  54.4249 14.69894557673053
IRIDIUM 33 DEB          
1 34143U 97051DW  21274.88370552  .00004484  00000-0  82713-3 0  9995
2 34143  86.3878 304.4601 0004951 148.7937 329.7531 14.65316223667533
IRIDIUM 33 DEB          
1 34145U 97051DY  21275.42554651  .00000788  00000-0  29511-3 0  9992
2 34145  86.2128 285.1441 0065630  42.5729 318.0524 14.29334872656834
IRIDIUM 33 DEB          
1 34146U 97051DZ  21275.34013538  .00000696  00000-0  22742-3 0  9995
2 34146  86.2847 297.6250 0034767 225.8355 146.4291 14.36900685660408
IRIDIUM 33 DEB          
1 34147U 97051EA  21275.17604572  .00030767  00000-0  22937-2 0  9998
2 34147  86.4243 321.4523 0029448  60.4701 299.9463 15.02397699670313
IRIDIUM 33 DEB          
1 34150U 97051ED  21274.79856906  .00006992  00000-0  12088-2 0  9998
2 34150  86.4771  20.4667 0105964  10.8419 110.8572 14.64584524664172
IRIDIUM 33 DEB          
1 34155U 97051EJ  21274.60172552  .00010191  00000-0  16790-2 0  9991
2 34155  86.4624 355.5828 0083717 161.4060 254.3734 14.68068556666623
IRIDIUM 33 DEB          
1 34159U 97051EN  21274.67837883  .00000332  00000-0  11340-3 0  9990
2 34159  86.3559 338.0147 0028742 253.5948 106.2087 14.33229672659693
IRIDIUM 33 DEB          
1 34160U 97051EP  21274.63690014  .00001987  00000-0  36811-3 0  9998
2 34160  86.4062 331.0069 0058731 326.4048  33.3445 14.63716411665244
TITAN 3C TRANSTAGE DEB  
1 34163U 65108CW  21275.22197723 -.00000023  00000-0  00000+0 0  9992
2 34163  25.9268 249.8375 6659696  73.7572 351.8205  2.49582997130998
TITAN 3C TRANSTAGE DEB  
1 34165U 65108CY  21264.80935306  .00001249  00000-0  44222-2 0  9990
2 34165  26.7604  13.0527 6456973 228.8412  54.3460  3.22441222100680
TITAN 3C TRANSTAGE DEB  
1 34173U 65108DG  21274.28452493 -.00000255  00000-0 -21291-2 0  9992
2 34173  27.4093 344.6247 6708512  25.4672   2.6058  2.68292559102305
COSMOS 1818 COOLANT     
1 34174U 87011E   21275.47827899  .00000299  00000-0  14059-3 0  9999
2 34174  65.0061 347.7529 0023521 264.9221 108.8395 14.34654424682945
COSMOS 1818 COOLANT     
1 34175U 87011F   21274.93487472  .00000321  00000-0  14781-3 0  9997
2 34175  65.0081 347.0085 0023883 263.5583  96.2784 14.34880501677881
